NORAD_CAT_ID,OBJECT_NAME,OBJECT_TYPE,EPOCH,MEAN_MOTION,ECCENTRICITY,INCLINATION,RA_OF_ASC_NODE,ARG_OF_PERICENTER,MEAN_ANOMALY,BSTAR,MEAN_MOTION_DOT,MEAN_MOTION_DDOT,TLE_LINE0,TLE_LINE1,TLE_LINE2,SEMIMAJOR_AXIS,PERIOD,APOGEE,PERIGEE,DECAYED
54067.0,STARLINK-5174,PAYLOAD,2023-06-05 11:49:09,15.08838191,9.49e-05,53.2153,189.8679,88.8021,271.308,2.1621e-05,5.6e-07,0.0,0 STARLINK-5174,1 54067U 22136S   23156.49246856  .00000056  00000-0  21621-4 0  9994,2 54067  53.2153 189.8679 0000949  88.8021 271.3080 15.08838191 34642,6917.886,95.438,540.407,539.094,0.0
54067.0,STARLINK-5174,PAYLOAD,2023-06-06 02:07:37,15.08840986,9.52e-05,53.2152,187.1915,87.3398,272.7703,1.7815e-05,-4e-08,0.0,0 STARLINK-5174,1 54067U 22136S   23157.08862675 -.00000004  00000-0  17815-4 0  9997,2 54067  53.2152 187.1915 0000952  87.3398 272.7703 15.08840986 35216,6917.877,95.437,540.401,539.084,0.0
54067.0,STARLINK-5174,PAYLOAD,2023-06-06 08:29:09,15.08841433,9.84e-05,53.2153,186.0026,82.275,277.8354,1.6515e-05,-2.5e-07,0.0,0 STARLINK-5174,1 54067U 22136S   23157.35358651 -.00000025  00000-0  16515-4 0  9990,2 54067  53.2153 186.0026 0000984  82.2750 277.8354 15.08841433 34775,6917.876,95.437,540.422,539.06,0.0
54067.0,STARLINK-5174,PAYLOAD,2023-06-07 06:44:34,15.08836435,9.47e-05,53.2153,181.8394,81.3323,278.7776,3.9999e-05,3.49e-06,0.0,0 STARLINK-5174,1 54067U 22136S   23158.28094952  .00000349  00000-0  39999-4 0  9993,2 54067  53.2153 181.8394 0000947  81.3323 278.7776 15.08836435 35394,6917.891,95.438,540.411,539.101,0.0
54067.0,STARLINK-5174,PAYLOAD,2023-06-07 11:30:43,15.08838654,9.35e-05,53.2153,180.9472,81.8855,278.2244,4.1233e-05,3.69e-06,0.0,0 STARLINK-5174,1 54067U 22136S   23158.47966834  .00000369  00000-0  41233-4 0  9997,2 54067  53.2153 180.9472 0000935  81.8855 278.2244 15.08838654 34943,6917.885,95.438,540.396,539.103,0.0
54067.0,STARLINK-5174,PAYLOAD,2023-06-08 08:10:44,15.0883833,9.67e-05,53.2149,177.081,82.0684,278.0417,2.398e-05,9.4e-07,0.0,0 STARLINK-5174,1 54067U 22136S   23159.34079021  .00000094  00000-0  23980-4 0  9991,2 54067  53.2149 177.0810 0000967  82.0684 278.0417 15.08838330 35558,6917.885,95.438,540.419,539.082,0.0
54067.0,STARLINK-5174,PAYLOAD,2023-06-09 08:01:31,15.08839116,0.0001007,53.2145,172.6208,77.1303,282.9802,5.0929e-05,5.23e-06,0.0,0 STARLINK-5174,1 54067U 22136S   23160.33439023  .00000523  00000-0  50929-4 0  9994,2 54067  53.2145 172.6208 0001007  77.1303 282.9802 15.08839116 35224,6917.883,95.438,540.445,539.051,0.0
54067.0,STARLINK-5174,PAYLOAD,2023-06-09 17:33:50,15.08834908,9.75e-05,53.2146,170.837,73.1124,286.9975,5.2809e-06,-2.04e-06,0.0,0 STARLINK-5174,1 54067U 22136S   23160.73183507 -.00000204  00000-0  52809-5 0  9998,2 54067  53.2146 170.8370 0000975  73.1124 286.9975 15.08834908 35763,6917.896,95.438,540.435,539.086,0.0
54067.0,STARLINK-5174,PAYLOAD,2023-06-10 09:27:42,15.08832972,0.0001018,53.2158,167.8643,81.8969,278.2138,-6.3685e-06,-3.89e-06,0.0,0 STARLINK-5174,1 54067U 22136S   23161.39423976 -.00000389  00000-0 -63685-5 0  9997,2 54067  53.2158 167.8643 0001018  81.8969 278.2138 15.08832972 35389,6917.902,95.438,540.471,539.063,0.0
54067.0,STARLINK-5174,PAYLOAD,2023-06-11 01:21:33,15.08836055,0.0001024,53.2157,164.8909,83.9364,276.1745,1.378e-05,-6.8e-07,0.0,0 STARLINK-5174,1 54067U 22136S   23162.05663960 -.00000068  00000-0  13780-4 0  9993,2 54067  53.2157 164.8909 0001024  83.9364 276.1745 15.08836055 35960,6917.892,95.438,540.466,539.049,0.0
54067.0,STARLINK-5174,PAYLOAD,2023-06-11 04:32:19,15.08837156,0.0001025,53.2158,164.2962,84.3248,275.7861,2.3323e-05,8.3e-07,0.0,0 STARLINK-5174,1 54067U 22136S   23162.18911911  .00000083  00000-0  23323-4 0  9999,2 54067  53.2158 164.2962 0001025  84.3248 275.7861 15.08837156 35508,6917.889,95.438,540.463,539.045,0.0
54067.0,STARLINK-5174,PAYLOAD,2023-06-11 17:15:24,15.08837915,0.0001049,53.2158,161.9167,79.8676,280.2434,6.2143e-05,7.01e-06,0.0,0 STARLINK-5174,1 54067U 22136S   23162.71903841  .00000701  00000-0  62143-4 0  9991,2 54067  53.2158 161.9167 0001049  79.8676 280.2434 15.08837915 35587,6917.887,95.438,540.477,539.026,0.0
54067.0,STARLINK-5174,PAYLOAD,2023-06-12 05:58:29,15.08839416,0.0001034,53.2157,159.5369,80.6842,279.4267,0.00010951,1.455e-05,0.0,0 STARLINK-5174,1 54067U 22136S   23163.24895648  .00001455  00000-0  10951-3 0  9991,2 54067  53.2157 159.5369 0001034  80.6842 279.4267 15.08839416 36147,6917.882,95.438,540.462,539.032,0.0
54067.0,STARLINK-5174,PAYLOAD,2023-06-12 17:06:11,15.0883935,0.0001044,53.2153,157.4556,78.4151,281.6958,7.7589e-05,9.47e-06,0.0,0 STARLINK-5174,1 54067U 22136S   23163.71263773  .00000947  00000-0  77589-4 0  9997,2 54067  53.2153 157.4556 0001044  78.4151 281.6958 15.08839350 35730,6917.882,95.438,540.47,539.025,0.0
54067.0,STARLINK-5174,PAYLOAD,2023-06-13 04:13:55,15.08829823,0.0001737,53.216,155.3731,88.4291,271.6901,-2.5911e-05,-7e-06,0.0,0 STARLINK-5174,1 54067U 22136S   23164.17633142 -.00000700  00000-0 -25911-4 0  9990,2 54067  53.2160 155.3731 0001737  88.4291 271.6901 15.08829823 36287,6917.911,95.438,540.978,538.575,0.0
54067.0,STARLINK-5174,PAYLOAD,2023-06-13 05:49:18,15.0882519,0.0001234,53.2159,155.0767,82.8156,277.2977,-6.9486e-05,-1.393e-05,0.0,0 STARLINK-5174,1 54067U 22136S   23164.24257515 -.00001393  00000-0 -69486-4 0  9998,2 54067  53.2159 155.0767 0001234  82.8156 277.2977 15.08825190 35817,6917.926,95.438,540.644,538.937,0.0
54067.0,STARLINK-5174,PAYLOAD,2023-06-14 08:50:51,15.08837217,0.0001238,53.2164,150.0195,90.5927,269.5207,-2.2283e-05,-6.42e-06,0.0,0 STARLINK-5174,1 54067U 22136S   23165.36865206 -.00000642  00000-0 -22283-4 0  9994,2 54067  53.2164 150.0195 0001238  90.5927 269.5207 15.08837217 36464,6917.889,95.438,540.61,538.897,0.0
54067.0,STARLINK-5174,PAYLOAD,2023-06-15 08:41:38,15.08837979,0.0001293,53.2161,145.5608,81.4241,278.6897,0.00016731,2.376e-05,0.0,0 STARLINK-5174,1 54067U 22136S   23166.36225023  .00002376  00000-0  16731-3 0  9996,2 54067  53.2161 145.5608 0001293  81.4241 278.6897 15.08837979 36133,6917.887,95.438,540.646,538.857,0.0
54067.0,STARLINK-5174,PAYLOAD,2023-06-16 08:32:23,15.08859492,0.0001299,53.216,141.1005,81.4996,278.6143,0.00023925,3.524e-05,0.0,0 STARLINK-5174,1 54067U 22136S   23167.35583239  .00003524  00000-0  23925-3 0  9991,2 54067  53.2160 141.1005 0001299  81.4996 278.6143 15.08859492 36765,6917.821,95.436,540.584,538.787,0.0
54067.0,STARLINK-5174,PAYLOAD,2023-06-16 14:53:57,15.08847532,0.0001578,53.2162,139.9104,81.0407,279.0764,0.00011527,1.547e-05,0.0,0 STARLINK-5174,1 54067U 22136S   23167.62080301  .00001547  00000-0  11527-3 0  9991,2 54067  53.2162 139.9104 0001578  81.0407 279.0764 15.08847532 36806,6917.857,95.437,540.814,538.631,0.0
54067.0,STARLINK-5174,PAYLOAD,2023-06-17 05:12:25,15.08848227,0.000135,53.2149,137.2354,99.0356,261.0789,7.2209e-05,8.62e-06,0.0,0 STARLINK-5174,1 54067U 22136S   23168.21695901  .00000862  00000-0  72209-4 0  9999,2 54067  53.2149 137.2354 0001350  99.0356 261.0789 15.08848227 36416,6917.855,95.437,540.654,538.786,0.0
54067.0,STARLINK-5174,PAYLOAD,2023-06-17 14:44:44,15.0884159,0.0001236,53.2159,135.4518,93.5818,266.5316,-3.3371e-05,-8.19e-06,0.0,0 STARLINK-5174,1 54067U 22136S   23168.61440446 -.00000819  00000-0 -33371-4 0  9996,2 54067  53.2159 135.4518 0001236  93.5818 266.5316 15.08841590 36955,6917.876,95.437,540.596,538.885,0.0
54067.0,STARLINK-5174,PAYLOAD,2023-06-18 01:52:27,15.08837514,0.000131,53.2158,133.3708,96.4555,263.6586,-0.00016319,-2.884e-05,0.0,0 STARLINK-5174,1 54067U 22136S   23169.07809067 -.00002884  00000-0 -16319-3 0  9991,2 54067  53.2158 133.3708 0001310  96.4555 263.6586 15.08837514 37022,6917.888,95.438,540.659,538.847,0.0
54067.0,STARLINK-5174,PAYLOAD,2023-06-18 05:03:13,15.08839866,0.0001338,53.2159,132.776,96.6119,263.5026,-0.00014449,-2.587e-05,0.0,0 STARLINK-5174,1 54067U 22136S   23169.21056868 -.00002587  00000-0 -14449-3 0  9992,2 54067  53.2159 132.7760 0001338  96.6119 263.5026 15.08839866 36560,6917.881,95.438,540.671,538.82,0.0
54067.0,STARLINK-5174,PAYLOAD,2023-06-18 14:35:31,15.08846819,0.0001353,53.2159,130.9917,99.5479,260.5666,-9.0943e-05,-1.735e-05,0.0,0 STARLINK-5174,1 54067U 22136S   23169.60800176 -.00001735  00000-0 -90943-4 0  9992,2 54067  53.2159 130.9917 0001353  99.5479 260.5666 15.08846819 37106,6917.86,95.437,540.661,538.789,0.0
54067.0,STARLINK-5174,PAYLOAD,2023-06-19 06:29:22,15.08848466,0.0001326,53.2158,128.0185,103.7875,256.3265,0.00010891,1.446e-05,0.0,0 STARLINK-5174,1 54067U 22136S   23170.27039475  .00001446  00000-0  10891-3 0  9993,2 54067  53.2158 128.0185 0001326 103.7875 256.3265 15.08848466 36723,6917.855,95.437,540.637,538.802,0.0
54067.0,STARLINK-5174,PAYLOAD,2023-06-19 14:26:18,15.08855312,0.0001502,53.2187,126.5207,86.3907,273.7257,-0.00026414,-4.491e-05,0.0,0 STARLINK-5174,1 54067U 22136S   23170.60159811 -.00004491  00000-0 -26414-3 0  9990,2 54067  53.2187 126.5207 0001502  86.3907 273.7257 15.08855312 36778,6917.834,95.437,540.738,538.66,0.0
54067.0,STARLINK-5174,PAYLOAD,2023-06-20 03:09:24,15.08831416,0.0001288,53.2167,124.1506,102.361,257.7527,0.00012137,1.644e-05,0.0,0 STARLINK-5174,1 54067U 22136S   23171.13152969  .00001644  00000-0  12137-3 0  9998,2 54067  53.2167 124.1506 0001288 102.3610 257.7527 15.08831416 37337,6917.907,95.438,540.663,538.881,0.0
54067.0,STARLINK-5174,PAYLOAD,2023-06-20 06:20:10,15.08836517,0.0001375,53.2166,123.5526,107.3937,252.7206,0.0001165,1.566e-05,0.0,0 STARLINK-5174,1 54067U 22136S   23171.26400702  .00001566  00000-0  11650-3 0  9995,2 54067  53.2166 123.5526 0001375 107.3937 252.7206 15.08836517 36879,6917.891,95.438,540.707,538.805,0.0
54067.0,STARLINK-5174,PAYLOAD,2023-06-20 14:17:06,15.0883705,0.0001355,53.2162,122.0666,106.2147,253.8994,9.4489e-05,1.216e-05,0.0,0 STARLINK-5174,1 54067U 22136S   23171.59520878  .00001216  00000-0  94489-4 0  9992,2 54067  53.2162 122.0666 0001355 106.2147 253.8994 15.08837050 36928,6917.889,95.438,540.692,538.817,0.0
